     2.10           G: GLONASS NAV DATA                     RINEX VERSION / TYPE
teqc  2015Jun23                         20220622 01:25:40UTCPGM / RUN BY / DATE
Linux 2.4.21-27.ELsmp|Opteron|gcc -static|Linux x86_64|=+   COMMENT
  2022     6    11   -9.313225746155D-10                    CORR TO SYSTEM TIME
                                                            END OF HEADER
 3 22  6 12 13 45  0.0 5.832128226757D-05 9.094947017729D-13 4.860000000000D+04
    2.600670410156D+03-2.948370933533D+00 0.000000000000D+00 0.000000000000D+00
    1.179605957031D+04-8.558454513550D-01-1.862645149231D-09 5.000000000000D+00
    2.252145410156D+04 7.855072021484D-01-2.793967723846D-09 0.000000000000D+00
12 22  6 12 13 45  0.0 1.881271600723D-05 0.000000000000D+00 4.860000000000D+04
   -1.782305419922D+04 1.736609458923D+00 0.000000000000D+00 0.000000000000D+00
    6.166319824219D+03-1.584741592407D+00 9.313225746155D-10-1.000000000000D+00
    1.719545507812D+04 2.373366355896D+00-3.725290298462D-09 0.000000000000D+00
14 22  6 12 13 45  0.0 2.525560557842D-05-0.000000000000D+00 4.860000000000D+04
   -8.163054199219D+03-1.407104492188D+00-4.656612873077D-09 0.000000000000D+00
    1.869665478516D+04 1.559384346008D+00 3.725290298462D-09-7.000000000000D+00
   -1.531129052734D+04 2.649892807007D+00-9.313225746155D-10 0.000000000000D+00
18 22  6 12 13 45  0.0 1.200288534164D-04 9.094947017729D-13 4.860000000000D+04
    9.681865234375D+03 5.255804061890D-01-2.793967723846D-09 0.000000000000D+00
    2.166847021484D+04 1.199042320251D+00-9.313225746155D-10-3.000000000000D+00
    9.424677734375D+03-3.294168472290D+00-1.862645149231D-09 0.000000000000D+00
24 22  6 12 13 45  0.0 9.832531213760D-05 1.818989403546D-12 4.860000000000D+04
   -6.670290527344D+03-5.867156982422D-01-3.725290298462D-09 0.000000000000D+00
    1.344936669922D+04-2.765168190002D+00 3.725290298462D-09 2.000000000000D+00
   -2.060953759766D+04-1.615103721619D+00 0.000000000000D+00 0.000000000000D+00
17 22  6 12 14 15  0.0 5.342932417989D-04 2.728484105319D-12 5.040000000000D+04
    2.211019042969D+03-5.018587112427D-01-4.656612873077D-09 0.000000000000D+00
    2.169859521484D+04-1.748984336853D+00 3.725290298462D-09 4.000000000000D+00
   -1.319439062500D+04-2.963535308838D+00-9.313225746155D-10 0.000000000000D+00
13 22  6 12 14 15  0.0-2.352241426706D-05-0.000000000000D+00 5.040000000000D+04
   -1.751553955078D+04 8.242683410645D-01-9.313225746155D-10 0.000000000000D+00
    1.640888916016D+04-8.608484268188D-01 2.793967723846D-09-2.000000000000D+00
    8.630975097656D+03 3.304534912109D+00-3.725290298462D-09 0.000000000000D+00
14 22  6 12 14 15  0.0 2.525467425585D-05-0.000000000000D+00 5.040000000000D+04
   -1.008352050781D+04-7.332305908203D-01-3.725290298462D-09 0.000000000000D+00
    2.118910009766D+04 1.166481018066D+00 4.656612873077D-09-7.000000000000D+00
   -1.001123046875D+04 3.200786590576D+00-1.862645149231D-09 0.000000000000D+00
18 22  6 12 14 15  0.0 1.200316473842D-04 9.094947017729D-13 5.040000000000D+04
    1.054094726562D+04 3.855686187744D-01-3.725290298462D-09 0.000000000000D+00
    2.303708837891D+04 3.201284408569D-01 0.000000000000D+00-3.000000000000D+00
    3.208337890625D+03-3.568167686462D+00-1.862645149231D-09 0.000000000000D+00
24 22  6 12 14 15  0.0 9.832903742790D-05 1.818989403546D-12 5.040000000000D+04
   -8.182009277344D+03-1.090908050537D+00-2.793967723846D-09 0.000000000000D+00
    8.294076660156D+03-2.911770820618D+00 4.656612873077D-09 2.000000000000D+00
   -2.268157519531D+04-6.722278594971D-01 0.000000000000D+00 0.000000000000D+00
15 22  6 12 14 15  0.0 9.545031934977D-05-9.094947017729D-13 5.046000000000D+04
    2.973095703125D+03-1.774703025818D+00-3.725290298462D-09 0.000000000000D+00
    1.312765136719D+04 2.380748748779D+00 2.793967723846D-09 0.000000000000D+00
   -2.164681640625D+04 1.198264122009D+00 9.313225746155D-10 0.000000000000D+00
 3 22  6 12 14 15  0.0 5.832407623529D-05 9.094947017729D-13 5.085000000000D+04
   -2.900298339844D+03-3.114251136780D+00 0.000000000000D+00 0.000000000000D+00
    1.062995361328D+04-4.261016845703D-01-9.313225746155D-10 5.000000000000D+00
    2.305141503906D+04-2.005939483643D-01-2.793967723846D-09 0.000000000000D+00
19 22  6 12 14 15  0.0-1.924559473991D-04-9.094947017729D-13 5.172000000000D+04
    1.301226123047D+04 9.611721038818D-01-9.313225746155D-10 0.000000000000D+00
    1.365150683594D+04 2.158747673035D+00-1.862645149231D-09 3.000000000000D+00
    1.716540771484D+04-2.444439888000D+00-1.862645149231D-09 0.000000000000D+00
19 22  6 12 14 45  0.0-1.924587413669D-04-9.094947017729D-13 5.220000000000D+04
    1.478119775391D+04 9.603185653687D-01-1.862645149231D-09 0.000000000000D+00
    1.685529296875D+04 1.383034706116D+00-9.313225746155D-10 3.000000000000D+00
    1.215823632812D+04-3.082925796509D+00-1.862645149231D-09 0.000000000000D+00
13 22  6 12 14 45  0.0-2.352334558964D-05-0.000000000000D+00 5.220000000000D+04
   -1.578175878906D+04 1.058566093445D+00 0.000000000000D+00 0.000000000000D+00
    1.416288281250D+04-1.632390975952D+00 1.862645149231D-09-2.000000000000D+00
    1.416840869141D+04 2.808176040649D+00-3.725290298462D-09 0.000000000000D+00
15 22  6 12 14 45  0.0 9.544938802719D-05-0.000000000000D+00 5.220000000000D+04
    2.768637695312D+02-1.211242675781D+00-3.725290298462D-09 0.000000000000D+00
    1.734741601562D+04 2.259408950806D+00 4.656612873077D-09 0.000000000000D+00
   -1.867950146484D+04 2.077260017395D+00-0.000000000000D+00 0.000000000000D+00
14 22  6 12 14 45  0.0 2.525467425585D-05-0.000000000000D+00 5.220000000000D+04
   -1.085750048828D+04-1.500482559204D-01-2.793967723846D-09 0.000000000000D+00
    2.275344042969D+04 5.373649597168D-01 5.587935447693D-09-7.000000000000D+00
   -3.937394042969D+03 3.504101753235D+00-2.793967723846D-09 0.000000000000D+00
17 22  6 12 14 45  0.0 5.342988297343D-04 2.728484105319D-12 5.220000000000D+04
    7.968071289062D+02-1.082016944885D+00-3.725290298462D-09 0.000000000000D+00
    1.808871337891D+04-2.216116905212D+00 4.656612873077D-09 4.000000000000D+00
   -1.794869091797D+04-2.284718513489D+00-0.000000000000D+00 0.000000000000D+00
18 22  6 12 14 45  0.0 1.200344413519D-04 9.094947017729D-13 5.220000000000D+04
    1.091974951172D+04-3.179550170898D-03-3.725290298462D-09 0.000000000000D+00
    2.285137255859D+04-5.084095001221D-01 1.862645149231D-09-3.000000000000D+00
   -3.255289550781D+03-3.567148208618D+00-9.313225746155D-10 0.000000000000D+00
 3 22  6 12 14 45  0.0 5.832687020302D-05 9.094947017729D-13 5.238000000000D+04
   -8.426713867188D+03-2.975152969360D+00 0.000000000000D+00 0.000000000000D+00
    1.027942431641D+04 3.238773345947D-02-0.000000000000D+00 5.000000000000D+00
    2.180800537109D+04-1.172238349915D+00-3.725290298462D-09 0.000000000000D+00
19 22  6 12 15 15  0.0-1.924615353346D-04-9.094947017729D-13 5.400000000000D+04
    1.630682275391D+04 6.900949478149D-01-2.793967723846D-09 0.000000000000D+00
    1.860151708984D+04 5.592679977417D-01 0.000000000000D+00 3.000000000000D+00
    6.210387695312D+03-3.482847213745D+00-1.862645149231D-09 0.000000000000D+00
 3 22  6 12 15 15  0.0 5.832873284817D-05 9.094947017729D-13 5.400000000000D+04
   -1.343548486328D+04-2.545269966125D+00 9.313225746155D-10 0.000000000000D+00
    1.069965527344D+04 4.131984710693D-01 9.313225746155D-10 5.000000000000D+00
    1.888489892578D+04-2.054860115051D+00-3.725290298462D-09 0.000000000000D+00
13 22  6 12 15 15  0.0-2.352427691221D-05-0.000000000000D+00 5.400000000000D+04
   -1.386065429688D+04 1.034461975098D+00 9.313225746155D-10 0.000000000000D+00
    1.057513037109D+04-2.332772254944D+00 0.000000000000D+00-2.000000000000D+00
    1.860963964844D+04 2.094436645508D+00-3.725290298462D-09 0.000000000000D+00
14 22  6 12 15 15  0.0 2.525467425585D-05 0.000000000000D+00 5.400000000000D+04
   -1.073159716797D+04 2.544555664062D-01-9.313225746155D-10 0.000000000000D+00
    2.302553369141D+04-2.542486190796D-01 4.656612873077D-09-7.000000000000D+00
    2.440644531250D+03 3.536637306213D+00-3.725290298462D-09 0.000000000000D+00
15 22  6 12 15 15  0.0 9.544845670462D-05-0.000000000000D+00 5.400000000000D+04
   -1.385203125000D+03-6.440296173096D-01-2.793967723846D-09 0.000000000000D+00
    2.108885009766D+04 1.851835250854D+00 5.587935447693D-09 0.000000000000D+00
   -1.426562548828D+04 2.795104980469D+00-9.313225746155D-10 0.000000000000D+00
17 22  6 12 15 15  0.0 5.343044176698D-04 2.728484105319D-12 5.400000000000D+04
   -1.695923828125D+03-1.681393623352D+00-1.862645149231D-09 0.000000000000D+00
    1.389599414062D+04-2.392474174500D+00 5.587935447693D-09 4.000000000000D+00
   -2.131322949219D+04-1.429447174072D+00 0.000000000000D+00 0.000000000000D+00
18 22  6 12 15 15  0.0 1.200372353196D-04 9.094947017729D-13 5.400000000000D+04
    1.041012744141D+04-5.896224975586D-01-3.725290298462D-09 0.000000000000D+00
    2.130287500000D+04-1.177792549133D+00 3.725290298462D-09-3.000000000000D+00
   -9.467937988281D+03-3.291076660156D+00-9.313225746155D-10 0.000000000000D+00
19 22  6 12 15 45  0.0-1.924643293023D-04-9.094947017729D-13 5.580000000000D+04
    1.711466943359D+04 1.699314117432D-01-2.793967723846D-09 0.000000000000D+00
    1.891129980469D+04-1.939487457275D-01 2.793967723846D-09 3.000000000000D+00
   -2.179101562500D+02-3.613300323486D+00-1.862645149231D-09 0.000000000000D+00
17 22  6 12 15 45  0.0 5.343100056052D-04 2.728484105319D-12 5.580000000000D+04
   -5.199632812500D+03-2.186874389648D+00-9.313225746155D-10 0.000000000000D+00
    9.651615234375D+03-2.277384757996D+00 4.656612873077D-09 4.000000000000D+00
   -2.302852734375D+04-4.641695022583D-01 9.313225746155D-10 0.000000000000D+00
 3 22  6 12 15 45  0.0 5.832966417074D-05 0.000000000000D+00 5.580000000000D+04
   -1.744923925781D+04-1.882490158081D+00 9.313225746155D-10 0.000000000000D+00
    1.166433837891D+04 6.240291595459D-01 9.313225746155D-10 5.000000000000D+00
    1.450506738281D+04-2.780275344849D+00-2.793967723846D-09 0.000000000000D+00
